OBJECT_NAME,OBJECT_ID,EPOCH,MEAN_MOTION,ECCENTRICITY,INCLINATION,RA_OF_ASC_NODE,ARG_OF_PERICENTER,MEAN_ANOMALY,EPHEMERIS_TYPE,CLASSIFICATION_TYPE,NORAD_CAT_ID,ELEMENT_SET_NO,REV_AT_EPOCH,BSTAR,MEAN_MOTION_DOT,MEAN_MOTION_DDOT
FM-6,2013-058A,2026-07-18T14:07:38.839008,1.00278676,.00014958,0.0130,35.9612,147.9640,208.0270,0,U,39360,999,4638,0,-.24E-6,0
RADUGA-1M 3,2013-062A,2026-07-18T22:19:17.550336,1.00271078,.00020648,6.0374,71.9460,283.0748,311.4963,0,U,39375,999,4642,0,.144E-5,0
SES-8,2013-071A,2026-07-18T21:02:38.601888,1.00271583,.0002763,0.0469,250.8052,223.3006,233.2215,0,U,39460,999,4474,0,-.276E-5,0
INMARSAT 5-F1,2013-073A,2026-07-18T23:26:54.282624,1.00271920,.00002088,0.0180,58.6161,286.8559,5.6602,0,U,39476,999,4589,0,.22E-6,0
TKSAT-1 (TUPAC KATARI),2013-075A,2026-07-18T10:49:38.620416,1.00270182,.00025071,0.0072,283.7369,188.2074,259.5025,0,U,39481,999,4591,0,-.202E-5,0
EXPRESS-AM5,2013-077A,2026-07-18T17:18:42.372000,1.00269666,.00000989,0.0411,234.0383,348.7143,113.4686,0,U,39487,999,4667,0,-.287E-5,0
GSAT-14,2014-001A,2026-07-18T16:59:52.760256,1.00271532,.0001992,0.0196,91.5571,115.9890,57.8865,0,U,39498,999,4569,0,-.83E-6,0
THAICOM 6,2014-002A,2026-07-18T23:11:45.467808,1.00272918,.00044397,0.0566,107.7059,18.4474,237.0517,0,U,39500,999,4577,0,-.127E-5,0
TDRS 12,2014-004A,2026-07-18T21:23:37.440384,1.00271709,.00043025,4.0090,19.6056,201.8496,355.2785,0,U,39504,999,4459,0,-.277E-5,0
ABS-2,2014-006A,2026-07-18T20:17:38.576832,1.00271920,.00034552,0.0187,51.7862,50.5707,213.6027,0,U,39508,999,4559,0,-.92E-6,0
ATHENA-FIDUS,2014-006B,2026-07-18T22:21:48.182688,1.00271871,.0001467,0.0324,100.3893,25.0886,184.4841,0,U,39509,999,4540,0,.148E-5,0
TURKSAT 4A,2014-007A,2026-07-18T22:26:38.472000,1.00269069,.00011937,0.0857,278.7546,334.3941,62.2364,0,U,39522,999,4528,0,.14E-5,0
EXPRESS-AT1,2014-010A,2026-07-18T22:57:16.276896,1.00309907,.0004485,0.3378,85.3543,56.2560,205.8580,0,U,39612,999,4513,0,-.19E-6,0
EXPRESS-AT2,2014-010B,2026-07-18T22:44:21.249888,1.00272784,.00002608,0.0162,59.6777,31.4767,242.6629,0,U,39613,999,4481,0,.72E-6,0
AMAZONAS 4A,2014-011A,2026-07-18T13:59:38.658048,1.00272657,.00046904,0.0594,182.1322,315.3797,294.7729,0,U,39616,999,4502,0,-.26E-5,0
ASTRA 5B,2014-011B,2026-07-18T22:05:40.609824,1.00270214,.00020303,0.0689,306.4473,179.1542,165.9804,0,U,39617,999,4498,0,.13E-5,0
IRNSS-1B,2014-017A,2026-07-18T16:54:18.489888,1.00276854,.00221986,28.8702,239.8599,192.0035,173.4078,0,U,39635,999,4511,0,.121E-5,0
LUCH-5V,2014-023A,2026-07-19T00:10:16.150368,1.00272381,.00020958,5.2098,69.4136,82.6340,242.0580,0,U,39727,999,4467,0,-.277E-5,0
KAZSAT-3,2014-023B,2026-07-18T20:36:21.108960,1.00274486,.00000722,0.0087,8.2513,87.6473,208.3444,0,U,39728,999,4277,0,.54E-6,0
EUTELSAT 3B,2014-030A,2026-07-18T18:58:38.631360,1.00272169,.00042602,0.0617,10.4945,105.8002,108.0347,0,U,39773,999,4438,0,.13E-6,0
ASIASAT 8 (AMOS-7),2014-046A,2026-07-18T20:54:12.182112,1.00272516,.00015849,0.0139,70.1254,32.7236,252.6718,0,U,40107,999,10246,0,-.339E-5,0
ASIASAT 6,2014-052A,2026-07-18T17:38:38.555808,1.00272380,.00008109,0.0194,81.2361,61.5362,178.3236,0,U,40141,999,4339,0,-.369E-5,0
OPTUS 10,2014-054A,2026-07-18T17:23:19.429152,1.00270261,.00018091,0.1210,353.1209,117.9902,242.2516,0,U,40146,999,4334,0,-.154E-5,0
MEASAT-3B,2014-054B,2026-07-18T20:01:38.678880,1.00272471,.00027453,0.0239,2.3721,76.9331,249.2520,0,U,40147,999,4322,0,-.248E-5,0
HIMAWARI-8,2014-060A,2026-07-18T17:18:57.347712,1.00270601,.00012072,0.0109,49.6415,114.4796,172.7993,0,U,40267,999,4307,0,-.282E-5,0
IRNSS-1C,2014-061A,2026-07-18T17:02:30.009120,1.00271766,.00219928,6.5950,88.3313,5.8558,180.9989,0,U,40269,999,4300,0,-.172E-5,0
INTELSAT 30 (IS-30),2014-062A,2026-07-18T13:53:31.719840,1.00275364,.0001489,0.0172,54.2083,340.9469,14.5587,0,U,40271,999,710,0,-.158E-5,0
ARSAT 1,2014-062B,2026-07-18T18:00:53.327808,1.00272728,.00019277,0.0558,272.1352,196.4137,26.4086,0,U,40272,999,4294,0,-.266E-5,0
EUTELSAT 53A,2014-064A,2026-07-18T20:29:58.477056,1.00275359,.00018666,0.0135,40.3903,158.6633,98.1011,0,U,40277,999,4188,0,.91E-6,0
GSAT-16,2014-078A,2026-07-18T22:42:44.709984,1.00270930,.00075138,0.0193,56.6179,39.0858,236.7934,0,U,40332,999,4242,0,.79E-6,0
DIRECTV 14,2014-078B,2026-07-18T13:59:38.658048,1.00270331,.00003085,0.0124,49.6835,326.6774,30.6839,0,U,40333,999,4235,0,-.132E-5,0
YAMAL 401,2014-082A,2026-07-18T23:31:26.517792,1.00269296,.00003239,0.0152,137.1715,296.1993,306.1916,0,U,40345,999,4223,0,-.234E-5,0
