FM-6                    
1 39360U 13058A   26199.58864397 -.00000024  00000+0  00000+0 0  9990
2 39360   0.0130  35.9612 0001495 147.9640 208.0270  1.00278676 46380
RADUGA-1M 3             
1 39375U 13062A   26199.93006424  .00000144  00000+0  00000+0 0  9991
2 39375   6.0374  71.9460 0002064 283.0748 311.4963  1.00271078 46429
SES-8                   
1 39460U 13071A   26199.87683567 -.00000276  00000+0  00000+0 0  9995
2 39460   0.0469 250.8052 0002763 223.3006 233.2215  1.00271583 44743
INMARSAT 5-F1           
1 39476U 13073A   26199.97701716  .00000022  00000+0  00000+0 0  9990
2 39476   0.0180  58.6161 0000208 286.8559   5.6602  1.00271920 45897
TKSAT-1 (TUPAC KATARI)  
1 39481U 13075A   26199.45114144 -.00000202  00000+0  00000+0 0  9995
2 39481   0.0072 283.7369 0002507 188.2074 259.5025  1.00270182 45916
EXPRESS-AM5             
1 39487U 13077A   26199.72132375 -.00000287  00000+0  00000+0 0  9992
2 39487   0.0411 234.0383 0000098 348.7143 113.4686  1.00269666 46677
GSAT-14                 
1 39498U 14001A   26199.70824954 -.00000083  00000+0  00000+0 0  9995
2 39498   0.0196  91.5571 0001992 115.9890  57.8865  1.00271532 45697
THAICOM 6               
1 39500U 14002A   26199.96649847 -.00000127  00000+0  00000+0 0  9993
2 39500   0.0566 107.7059 0004439  18.4474 237.0517  1.00272918 45771
TDRS 12                 
1 39504U 14004A   26199.89140556 -.00000277  00000+0  00000+0 0  9990
2 39504   4.0090  19.6056 0004302 201.8496 355.2785  1.00271709 44596
ABS-2                   
1 39508U 14006A   26199.84558538 -.00000092  00000+0  00000+0 0  9999
2 39508   0.0187  51.7862 0003455  50.5707 213.6027  1.00271920 45599
ATHENA-FIDUS            
1 39509U 14006B   26199.93180767  .00000148  00000+0  00000+0 0  9996
2 39509   0.0324 100.3893 0001467  25.0886 184.4841  1.00271871 45408
TURKSAT 4A              
1 39522U 14007A   26199.93516750  .00000140  00000+0  00000+0 0  9999
2 39522   0.0857 278.7546 0001193 334.3941  62.2364  1.00269069 45288
EXPRESS-AT1             
1 39612U 14010A   26199.95643839 -.00000019  00000+0  00000+0 0  9990
2 39612   0.3378  85.3543 0004485  56.2560 205.8580  1.00309907 45137
EXPRESS-AT2             
1 39613U 14010B   26199.94746817  .00000072  00000+0  00000+0 0  9998
2 39613   0.0162  59.6777 0000260  31.4767 242.6629  1.00272784 44819
AMAZONAS 4A             
1 39616U 14011A   26199.58308632 -.00000260  00000+0  00000+0 0  9991
2 39616   0.0594 182.1322 0004690 315.3797 294.7729  1.00272657 45029
ASTRA 5B                
1 39617U 14011B   26199.92060891  .00000130  00000+0  00000+0 0  9997
2 39617   0.0689 306.4473 0002030 179.1542 165.9804  1.00270214 44987
IRNSS-1B                
1 39635U 14017A   26199.70438067  .00000121  00000+0  00000+0 0  9993
2 39635  28.8702 239.8599 0022198 192.0035 173.4078  1.00276854 45116
LUCH-5V                 
1 39727U 14023A   26200.00713137 -.00000277  00000+0  00000+0 0  9995
2 39727   5.2098  69.4136 0002095  82.6340 242.0580  1.00272381 44678
KAZSAT-3                
1 39728U 14023B   26199.85857765  .00000054  00000+0  00000+0 0  9994
2 39728   0.0087   8.2513 0000072  87.6473 208.3444  1.00274486 42776
EUTELSAT 3B             
1 39773U 14030A   26199.79072490  .00000013  00000+0  00000+0 0  9994
2 39773   0.0617  10.4945 0004260 105.8002 108.0347  1.00272169 44386
ASIASAT 8 (AMOS-7)      
1 40107U 14046A   26199.87097433 -.00000339  00000+0  00000+0 0  9999
2 40107   0.0139  70.1254 0001584  32.7236 252.6718  1.00272516102465
ASIASAT 6               
1 40141U 14052A   26199.73516847 -.00000369  00000+0  00000+0 0  9997
2 40141   0.0194  81.2361 0000810  61.5362 178.3236  1.00272380 43391
OPTUS 10                
1 40146U 14054A   26199.72453043 -.00000154  00000+0  00000+0 0  9993
2 40146   0.1210 353.1209 0001809 117.9902 242.2516  1.00270261 43346
MEASAT-3B               
1 40147U 14054B   26199.83447545 -.00000248  00000+0  00000+0 0  9990
2 40147   0.0239   2.3721 0002745  76.9331 249.2520  1.00272471 43223
HIMAWARI-8              
1 40267U 14060A   26199.72149708 -.00000282  00000+0  00000+0 0  9996
2 40267   0.0109  49.6415 0001207 114.4796 172.7993  1.00270601 43071
IRNSS-1C                
1 40269U 14061A   26199.71006955 -.00000172  00000+0  00000+0 0  9992
2 40269   6.5950  88.3313 0021992   5.8558 180.9989  1.00271766 43009
INTELSAT 30 (IS-30)     
1 40271U 14062A   26199.57883935 -.00000158  00000+0  00000+0 0  9995
2 40271   0.0172  54.2083 0001489 340.9469  14.5587  1.00275364  7101
ARSAT 1                 
1 40272U 14062B   26199.75061722 -.00000266  00000+0  00000+0 0  9998
2 40272   0.0558 272.1352 0001927 196.4137  26.4086  1.00272728 42941
EUTELSAT 53A            
1 40277U 14064A   26199.85414904  .00000091  00000+0  00000+0 0  9995
2 40277   0.0135  40.3903 0001866 158.6633  98.1011  1.00275359 41886
GSAT-16                 
1 40332U 14078A   26199.94635081  .00000079  00000+0  00000+0 0  9999
2 40332   0.0193  56.6179 0007513  39.0858 236.7934  1.00270930 42428
DIRECTV 14              
1 40333U 14078B   26199.58308632 -.00000132  00000+0  00000+0 0  9990
2 40333   0.0124  49.6835 0000308 326.6774  30.6839  1.00270331 42353
YAMAL 401               
1 40345U 14082A   26199.98016803 -.00000234  00000+0  00000+0 0  9991
2 40345   0.0152 137.1715 0000323 296.1993 306.1916  1.00269296 42230
